ONEWEB-0694             
1 56722U 23068N   23223.72181770  .00001905  00000+0  26001-3 0  9992
2 56722  86.7234 106.2515 0012697 299.4084  60.5869 14.78058014 13135
ONEWEB-0696             
1 56723U 23068P   23224.16667824 -.00831600  00000+0 -50090+0 0  9997
2 56723  87.1455 108.2457 0011245 321.3751 162.8465 14.09957069 13036
ONEWEB-0703             
1 56724U 23068Q   23224.16667824 -.00946800  00000+0 -69473+0 0  9992
2 56724  87.2163 108.3646 0010104 313.4879 149.7978 13.98869716 13021
ONEWEB-0721             
1 56725U 23068R   23223.73686606  .00002215  00000+0  26930-3 0  9990
2 56725  86.6761 105.6983 0008738 300.7126  59.3236 14.83016977 13163
